NOAA 15                 
1 25338U 98030A   23017.53987262  .00000325  00000+0  15360-3 0  9993
2 25338  98.6238  49.0478 0010944  38.3209 321.8747 14.26224621283784
NOAA 18                 
1 28654U 05018A   23017.44111121  .00000328  00000+0  20032-3 0  9999
2 28654  98.9274  92.4742 0015182  87.6070 272.6840 14.12841895910281
NOAA 19                 
1 33591U 09005A   23017.53781930  .00000315  00000+0  19472-3 0  9998
2 33591  99.1230  60.9030 0013112 309.0401  50.9603 14.12669255718673
METOP-B                 
1 38771U 12049A   23017.45666875  .00000259  00000+0  13839-3 0  9994
2 38771  98.7021  79.1937 0001619 109.4569 261.2721 14.21498785536130
SARAL                   
1 39086U 13009A   23016.91248548  .00000280  00000+0  12035-3 0  9995
2 39086  98.5453 204.4128 0001505  49.7016 310.4299 14.32067666517036
METOP-C                 
1 43689U 18087A   23017.42069098  .00000253  00000+0  13540-3 0  9990
2 43689  98.7066  79.2188 0004040 129.3425 230.8111 14.21504514217707
ANGELS                  
1 44876U 19092D   23016.83937490  .00007838  00000+0  37389-3 0  9993
2 44876  97.4734 202.7784 0011329 342.7072  17.3775 15.19299325170628
GAZELLE                 
1 54023U 22127A   23016.79753552 -.00000043  00000+0  00000+0 0  9999
2 54023  98.3178  18.5239 0013696 358.2510   1.8686 14.41689996 14561
EOS-6 (OCEANSAT-3)      
1 54361U 22158A   23017.47368072  .00000697  00000+0  20354-3 0  9995
2 54361  98.3523 116.5147 0001578  94.0381 266.1012 14.47010708  7548
